METHANESAT              
1 59101U 24043D   25169.58839898  .00001570  00000+0  14738-3 0  9998
2 59101  97.8012 295.6488 0011870 139.0702 221.1412 14.95376615 70261
